NLLOC "./nlloc.20121019.200648.grid0" "LOCATED" "Location completed."
SIGNATURE "Megies LMU Munich   NLLoc:v5.00.0 18Nov2012 21h10m32"
COMMENT "NonLinLoc OctTree Location"
GRID  179 179 87  4553.900000 5281.100000 -1.700000  0.100000 0.100000 0.100000 PROB_DENSITY
SEARCH OCTREE nInitial 300 nEvaluated 50012 smallestNodeSide 0.013906/0.013906/0.022396 oct_tree_integral 1.159466e-01 scatter_volume 1.159466e-01
HYPOCENTER  x 4562.139453 y 5290.688359 z -0.009115  OT 48.117767  ix -1 iy -1 iz -1
GEOGRAPHIC  OT 2012 10 19  20 06 48.117767  Lat 5290.688359 Long 4562.139453 Depth -0.009115
QUALITY  Pmax 7.799e-01 MFmin 0.266482 MFmax 4176.394530 RMS 0.008635 Nphs 7 Gap 164 Dist 0.752705 Mamp -9.90 0 Mdur -9.90 0
VPVSRATIO  VpVsRatio 5.000e-01  Npair 2  Diff 2.550e-01
STATISTICS  ExpectX 4.5621e+03 Y 5.2906e+03 Z -3.0468e-03  CovXX 1.38e-02 XY -1.32e-02 XZ -6.03e-04 YY 3.44e-02 YZ 3.77e-04 ZZ 1.74e-01 EllAz1  243.9 Dip1  -0.1 Len1  1.61e-01 Az2  333.9 Dip2  -0.3 Len2  3.80e-01 Len3  7.84e-01
STAT_GEOG  ExpectLat 5290.609525 Long 4562.143577 Depth -0.003047
TRANSFORM  NONE
FOCALMECH  Hyp  5290.688359 4562.139453 -0.009115 Mech  0.0 0.0 0.0 mf  0.00 nObs 0
PHASE ID Ins Cmp On Pha  FM Date     HrMn   Sec     Err  ErrMag    Coda      Amp       Per  >   TTpred    Res       Weight    StaLoc(X  Y         Z)        SDist    SAzim  RAz  RDip RQual    Tcorr 
RTBE   ?    ?  ?  ? P     ? 20121019 2006   48.2300 GAU  2.50e-02 -1.00e+00 -1.00e+00 -1.00e+00 >    0.1301   -0.0179    1.0245 4561.9031 5289.9737    0.0000    0.7527 198.30 198.1  89.3  9     0.0000
RTBE   ?    ?  ?  ? S     ? 20121019 2006   48.3450 GAU  3.00e-02 -1.00e+00 -1.00e+00 -1.00e+00 >    0.2186    0.0086    0.8078 4561.9031 5289.9737    0.0000    0.7527 198.30 198.1  89.3  9     0.0000
RJOB   ?    ?  ?  ? P     ? 20121019 2006   48.6200 GAU  2.50e-02 -1.00e+00 -1.00e+00 -1.00e+00 >    0.4932    0.0090    1.0245 4559.7848 5289.0697    0.0000    2.8574 235.49 235.8  89.8  9     0.0000
RMOA   ?    ?  ?  ? P     ? 20121019 2006   48.6800 GAU  1.00e-02 -1.00e+00 -1.00e+00 -1.00e+00 >    0.5627   -0.0004    2.1002 4564.9110 5291.8481    0.0000    3.0044  67.29  70.5  89.7  9     0.0000
RMOA   ?    ?  ?  ? S     ? 20121019 2006   49.0500 GAU  1.35e-01 -1.00e+00 -1.00e+00 -1.00e+00 >    0.9453   -0.0130    0.0564 4564.9110 5291.8481    0.0000    3.0044  67.29  70.5  89.7  9     0.0000
RNON   ?    ?  ?  ? P     ? 20121019 2006   48.6800 GAU  1.50e-02 -1.00e+00 -1.00e+00 -1.00e+00 >    0.5586    0.0036    1.6801 4565.1348 5289.4978    0.0000    3.2233 111.68 111.6  89.7  9     0.0000
RWMO   ?    ?  ?  ? P     ? 20121019 2006   49.3800 GAU  5.50e-02 -1.00e+00 -1.00e+00 -1.00e+00 >    1.2699   -0.0076    0.3066 4554.8402 5289.7999    0.0000    7.3531 263.06 262.4  89.9  9     0.0000
RTSH   ?    ?  ?  ? P     ? 20121019 2006   48.5050 GAU  2.50e-02 -1.00e+00 -1.00e+00 -1.00e+00 >    0.0000    0.0000    0.0000 -100000000000000000000.0000 -100000000000000000000.0000 -100000000000000000000.0000    0.0000   0.00   0.0   0.0  0     0.0000
RTSA   ?    ?  ?  ? P     ? 20121019 2006   48.5950 GAU  2.50e-02 -1.00e+00 -1.00e+00 -1.00e+00 >    0.0000    0.0000    0.0000 -100000000000000000000.0000 -100000000000000000000.0000 -100000000000000000000.0000    0.0000   0.00   0.0   0.0  0     0.0000
RTSH   ?    ?  ?  ? S     ? 20121019 2006   48.7500 GAU  9.50e-02 -1.00e+00 -1.00e+00 -1.00e+00 >    0.0000    0.0000    0.0000 -100000000000000000000.0000 -100000000000000000000.0000 -100000000000000000000.0000    0.0000   0.00   0.0   0.0  0     0.0000
RTSA   ?    ?  ?  ? S     ? 20121019 2006   48.9800 GAU  1.65e-01 -1.00e+00 -1.00e+00 -1.00e+00 >    0.0000    0.0000    0.0000 -100000000000000000000.0000 -100000000000000000000.0000 -100000000000000000000.0000    0.0000   0.00   0.0   0.0  0     0.0000
END_PHASE
END_NLLOC
